CCSDS_OMM_VERS = 2.0
CREATION_DATE  = 
ORIGINATOR     = 

OBJECT_NAME    = SEASAT 1
OBJECT_ID      = 1978-064A
CENTER_NAME    = EARTH
REF_FRAME      = TEME
TIME_SYSTEM    = UTC
MEAN_ELEMENT_THEORY = SGP/SGP4

EPOCH          = 2025-12-13T15:37:06.148704
MEAN_MOTION    = 14.46063134
ECCENTRICITY   = .00016002
INCLINATION    = 108.0117
RA_OF_ASC_NODE = 304.9452
ARG_OF_PERICENTER = 250.7676
MEAN_ANOMALY   = 109.3297

EPHEMERIS_TYPE = 0
CLASSIFICATION_TYPE = U
NORAD_CAT_ID   = 10967
ELEMENT_SET_NO = 999
REV_AT_EPOCH   = 49407
BSTAR          = .21569299E-3
MEAN_MOTION_DOT = .633E-5
MEAN_MOTION_DDOT = 0

CCSDS_OMM_VERS = 2.0
CREATION_DATE  = 
ORIGINATOR     = 

OBJECT_NAME    = SL-14 R/B
OBJECT_ID      = 1979-011B
CENTER_NAME    = EARTH
REF_FRAME      = TEME
TIME_SYSTEM    = UTC
MEAN_ELEMENT_THEORY = SGP/SGP4

EPOCH          = 2025-12-13T12:37:15.639744
MEAN_MOTION    = 14.91771173
ECCENTRICITY   = .00158294
INCLINATION    = 82.5233
RA_OF_ASC_NODE = 178.2987
ARG_OF_PERICENTER = 350.8515
MEAN_ANOMALY   = 9.2413

EPHEMERIS_TYPE = 0
CLASSIFICATION_TYPE = U
NORAD_CAT_ID   = 11267
ELEMENT_SET_NO = 999
REV_AT_EPOCH   = 51593
BSTAR          = .89458461E-4
MEAN_MOTION_DOT = .928E-5
MEAN_MOTION_DDOT = 0

CCSDS_OMM_VERS = 2.0
CREATION_DATE  = 
ORIGINATOR     = 

OBJECT_NAME    = SL-8 R/B
OBJECT_ID      = 1979-089B
CENTER_NAME    = EARTH
REF_FRAME      = TEME
TIME_SYSTEM    = UTC
MEAN_ELEMENT_THEORY = SGP/SGP4

EPOCH          = 2025-12-13T11:03:11.441376
MEAN_MOTION    = 14.42284786
ECCENTRICITY   = .00144643
INCLINATION    = 74.0692
RA_OF_ASC_NODE = 250.6451
ARG_OF_PERICENTER = 84.6948
MEAN_ANOMALY   = 275.5859

EPHEMERIS_TYPE = 0
CLASSIFICATION_TYPE = U
NORAD_CAT_ID   = 11574
ELEMENT_SET_NO = 999
REV_AT_EPOCH   = 42367
BSTAR          = .14925281E-3
MEAN_MOTION_DOT = .467E-5
MEAN_MOTION_DDOT = 0

CCSDS_OMM_VERS = 2.0
CREATION_DATE  = 
ORIGINATOR     = 

OBJECT_NAME    = SL-14 R/B
OBJECT_ID      = 1980-005B
CENTER_NAME    = EARTH
REF_FRAME      = TEME
TIME_SYSTEM    = UTC
MEAN_ELEMENT_THEORY = SGP/SGP4

EPOCH          = 2025-12-13T14:47:55.488480
MEAN_MOTION    = 14.90793049
ECCENTRICITY   = .00173605
INCLINATION    = 82.5148
RA_OF_ASC_NODE = 28.8678
ARG_OF_PERICENTER = 90.8164
MEAN_ANOMALY   = 269.5044

EPHEMERIS_TYPE = 0
CLASSIFICATION_TYPE = U
NORAD_CAT_ID   = 11672
ELEMENT_SET_NO = 999
REV_AT_EPOCH   = 46366
BSTAR          = .7862473E-4
MEAN_MOTION_DOT = .8E-5
MEAN_MOTION_DDOT = 0

CCSDS_OMM_VERS = 2.0
CREATION_DATE  = 
ORIGINATOR     = 

OBJECT_NAME    = SL-8 R/B
OBJECT_ID      = 1981-003B
CENTER_NAME    = EARTH
REF_FRAME      = TEME
TIME_SYSTEM    = UTC
MEAN_ELEMENT_THEORY = SGP/SGP4

EPOCH          = 2025-12-13T12:49:36.455808
MEAN_MOTION    = 15.07070034
ECCENTRICITY   = .02794356
INCLINATION    = 82.9304
RA_OF_ASC_NODE = 9.4720
ARG_OF_PERICENTER = 117.4748
MEAN_ANOMALY   = 245.5190

EPHEMERIS_TYPE = 0
CLASSIFICATION_TYPE = U
NORAD_CAT_ID   = 12139
ELEMENT_SET_NO = 999
REV_AT_EPOCH   = 30168
BSTAR          = .46803298E-3
MEAN_MOTION_DOT = .17671E-3
MEAN_MOTION_DDOT = 0

CCSDS_OMM_VERS = 2.0
CREATION_DATE  = 
ORIGINATOR     = 

OBJECT_NAME    = SL-3 R/B
OBJECT_ID      = 1981-046B
CENTER_NAME    = EARTH
REF_FRAME      = TEME
TIME_SYSTEM    = UTC
MEAN_ELEMENT_THEORY = SGP/SGP4

EPOCH          = 2025-12-13T14:30:10.113408
MEAN_MOTION    = 15.39630327
ECCENTRICITY   = .00187743
INCLINATION    = 81.2334
RA_OF_ASC_NODE = 32.9040
ARG_OF_PERICENTER = 321.3241
MEAN_ANOMALY   = 38.6655

EPHEMERIS_TYPE = 0
CLASSIFICATION_TYPE = U
NORAD_CAT_ID   = 12465
ELEMENT_SET_NO = 999
REV_AT_EPOCH   = 42517
BSTAR          = .32442866E-3
MEAN_MOTION_DOT = .12899E-3
MEAN_MOTION_DDOT = 0

CCSDS_OMM_VERS = 2.0
CREATION_DATE  = 
ORIGINATOR     = 

OBJECT_NAME    = SL-3 R/B
OBJECT_ID      = 1981-103B
CENTER_NAME    = EARTH
REF_FRAME      = TEME
TIME_SYSTEM    = UTC
MEAN_ELEMENT_THEORY = SGP/SGP4

EPOCH          = 2025-12-13T15:32:09.846816
MEAN_MOTION    = 15.20248497
ECCENTRICITY   = .00117922
INCLINATION    = 81.1592
RA_OF_ASC_NODE = 314.2909
ARG_OF_PERICENTER = 209.7552
MEAN_ANOMALY   = 150.3010

EPHEMERIS_TYPE = 0
CLASSIFICATION_TYPE = U
NORAD_CAT_ID   = 12904
ELEMENT_SET_NO = 999
REV_AT_EPOCH   = 96015
BSTAR          = .3659413E-3
MEAN_MOTION_DOT = .7977E-4
MEAN_MOTION_DDOT = 0

CCSDS_OMM_VERS = 2.0
CREATION_DATE  = 
ORIGINATOR     = 

OBJECT_NAME    = SL-3 R/B
OBJECT_ID      = 1982-013B
CENTER_NAME    = EARTH
REF_FRAME      = TEME
TIME_SYSTEM    = UTC
MEAN_ELEMENT_THEORY = SGP/SGP4

EPOCH          = 2025-12-13T13:32:42.645408
MEAN_MOTION    = 15.21096934
ECCENTRICITY   = .00240458
INCLINATION    = 81.1750
RA_OF_ASC_NODE = 261.6443
ARG_OF_PERICENTER = 108.1919
MEAN_ANOMALY   = 252.1933

EPHEMERIS_TYPE = 0
CLASSIFICATION_TYPE = U
NORAD_CAT_ID   = 13068
ELEMENT_SET_NO = 999
REV_AT_EPOCH   = 39125
BSTAR          = .26332913E-3
MEAN_MOTION_DOT = .5926E-4
MEAN_MOTION_DDOT = 0

CCSDS_OMM_VERS = 2.0
CREATION_DATE  = 
ORIGINATOR     = 

OBJECT_NAME    = SL-3 R/B
OBJECT_ID      = 1982-039B
CENTER_NAME    = EARTH
REF_FRAME      = TEME
TIME_SYSTEM    = UTC
MEAN_ELEMENT_THEORY = SGP/SGP4

EPOCH          = 2025-12-13T15:12:22.534560
MEAN_MOTION    = 15.09533575
ECCENTRICITY   = .00296261
INCLINATION    = 81.1717
RA_OF_ASC_NODE = 315.0690
ARG_OF_PERICENTER = 249.3022
MEAN_ANOMALY   = 110.5027

EPHEMERIS_TYPE = 0
CLASSIFICATION_TYPE = U
NORAD_CAT_ID   = 13154
ELEMENT_SET_NO = 999
REV_AT_EPOCH   = 36865
BSTAR          = .25146664E-3
MEAN_MOTION_DOT = .4096E-4
MEAN_MOTION_DDOT = 0

CCSDS_OMM_VERS = 2.0
CREATION_DATE  = 
ORIGINATOR     = 

OBJECT_NAME    = SL-3 R/B
OBJECT_ID      = 1982-079B
CENTER_NAME    = EARTH
REF_FRAME      = TEME
TIME_SYSTEM    = UTC
MEAN_ELEMENT_THEORY = SGP/SGP4

EPOCH          = 2025-12-13T14:24:31.392576
MEAN_MOTION    = 15.23602002
ECCENTRICITY   = .00271016
INCLINATION    = 81.1467
RA_OF_ASC_NODE = 294.6464
ARG_OF_PERICENTER = 96.3270
MEAN_ANOMALY   = 264.1050

EPHEMERIS_TYPE = 0
CLASSIFICATION_TYPE = U
NORAD_CAT_ID   = 13403
ELEMENT_SET_NO = 999
REV_AT_EPOCH   = 36458
BSTAR          = .33268437E-3
MEAN_MOTION_DOT = .8072E-4
MEAN_MOTION_DDOT = 0

CCSDS_OMM_VERS = 2.0
CREATION_DATE  = 
ORIGINATOR     = 

OBJECT_NAME    = SL-14 R/B
OBJECT_ID      = 1982-092B
CENTER_NAME    = EARTH
REF_FRAME      = TEME
TIME_SYSTEM    = UTC
MEAN_ELEMENT_THEORY = SGP/SGP4

EPOCH          = 2025-12-13T16:32:01.368672
MEAN_MOTION    = 14.86557018
ECCENTRICITY   = .0019212
INCLINATION    = 82.5683
RA_OF_ASC_NODE = 221.8244
ARG_OF_PERICENTER = 223.6739
MEAN_ANOMALY   = 190.4955

EPHEMERIS_TYPE = 0
CLASSIFICATION_TYPE = U
NORAD_CAT_ID   = 13553
ELEMENT_SET_NO = 999
REV_AT_EPOCH   = 31615
BSTAR          = .75605733E-4
MEAN_MOTION_DOT = .696E-5
MEAN_MOTION_DDOT = 0

CCSDS_OMM_VERS = 2.0
CREATION_DATE  = 
ORIGINATOR     = 

OBJECT_NAME    = SL-3 R/B
OBJECT_ID      = 1983-010B
CENTER_NAME    = EARTH
REF_FRAME      = TEME
TIME_SYSTEM    = UTC
MEAN_ELEMENT_THEORY = SGP/SGP4

EPOCH          = 2025-12-13T14:45:20.549088
MEAN_MOTION    = 15.43488462
ECCENTRICITY   = .00171555
INCLINATION    = 81.1030
RA_OF_ASC_NODE = 107.5499
ARG_OF_PERICENTER = 347.9966
MEAN_ANOMALY   = 12.0866

EPHEMERIS_TYPE = 0
CLASSIFICATION_TYPE = U
NORAD_CAT_ID   = 13819
ELEMENT_SET_NO = 999
REV_AT_EPOCH   = 34465
BSTAR          = .35497501E-3
MEAN_MOTION_DOT = .16026E-3
MEAN_MOTION_DDOT = 0

CCSDS_OMM_VERS = 2.0
CREATION_DATE  = 
ORIGINATOR     = 

OBJECT_NAME    = SL-3 R/B
OBJECT_ID      = 1983-075B
CENTER_NAME    = EARTH
REF_FRAME      = TEME
TIME_SYSTEM    = UTC
MEAN_ELEMENT_THEORY = SGP/SGP4

EPOCH          = 2025-12-13T15:13:07.054752
MEAN_MOTION    = 15.36159661
ECCENTRICITY   = .00228512
INCLINATION    = 97.6108
RA_OF_ASC_NODE = 344.1477
ARG_OF_PERICENTER = 172.2084
MEAN_ANOMALY   = 187.9519

EPHEMERIS_TYPE = 0
CLASSIFICATION_TYPE = U
NORAD_CAT_ID   = 14208
ELEMENT_SET_NO = 999
REV_AT_EPOCH   = 31693
BSTAR          = .35775639E-3
MEAN_MOTION_DOT = .12633E-3
MEAN_MOTION_DDOT = 0

CCSDS_OMM_VERS = 2.0
CREATION_DATE  = 
ORIGINATOR     = 

OBJECT_NAME    = COSMOS 1536
OBJECT_ID      = 1984-013A
CENTER_NAME    = EARTH
REF_FRAME      = TEME
TIME_SYSTEM    = UTC
MEAN_ELEMENT_THEORY = SGP/SGP4

EPOCH          = 2025-12-13T15:51:27.092736
MEAN_MOTION    = 15.22531894
ECCENTRICITY   = .00135626
INCLINATION    = 82.5454
RA_OF_ASC_NODE = 193.2510
ARG_OF_PERICENTER = 221.9363
MEAN_ANOMALY   = 138.0836

EPHEMERIS_TYPE = 0
CLASSIFICATION_TYPE = U
NORAD_CAT_ID   = 14699
ELEMENT_SET_NO = 999
REV_AT_EPOCH   = 25952
BSTAR          = .31427314E-3
MEAN_MOTION_DOT = .7337E-4
MEAN_MOTION_DDOT = 0

CCSDS_OMM_VERS = 2.0
CREATION_DATE  = 
ORIGINATOR     = 

OBJECT_NAME    = SL-14 R/B
OBJECT_ID      = 1984-027B
CENTER_NAME    = EARTH
REF_FRAME      = TEME
TIME_SYSTEM    = UTC
MEAN_ELEMENT_THEORY = SGP/SGP4

EPOCH          = 2025-12-13T10:20:35.795904
MEAN_MOTION    = 14.85875859
ECCENTRICITY   = .0016387
INCLINATION    = 82.5413
RA_OF_ASC_NODE = 325.9078
ARG_OF_PERICENTER = 258.2904
MEAN_ANOMALY   = 101.6474

EPHEMERIS_TYPE = 0
CLASSIFICATION_TYPE = U
NORAD_CAT_ID   = 14820
ELEMENT_SET_NO = 999
REV_AT_EPOCH   = 23482
BSTAR          = .96440251E-4
MEAN_MOTION_DOT = .866E-5
MEAN_MOTION_DDOT = 0

